start=new Date('2022-11-08T00:00:00.000Z').valueOf();
sats=[{"COUNTRY_CODE":"US","RA_OF_ASC_NODE":"248.7045","TIME_SYSTEM":"UTC","REV_AT_EPOCH":"8307","OBJECT_ID":"2021-040AA","EPHEMERIS_TYPE":"0","ARG_OF_PERICENTER":"49.4619","FILE":"3648233","PERIAPSIS":"545.993","MEAN_MOTION":"15.06380750","CENTER_NAME":"EARTH","LAUNCH_DATE":"2021-05-09","APOAPSIS":"548.552","GP_ID":"217105040","ELEMENT_SET_NO":"999","REF_FRAME":"TEME","EPOCH":"2022-11-07T20:19:50.616768","DECAY_DATE":null,"OBJECT_TYPE":"PAYLOAD","BSTAR":"0.00024022000000","RCS_SIZE":"LARGE","TLE_LINE1":"1 48452U 21040AA  22311.84711362  .00003296  00000-0  24022-3 0  9994","SEMIMAJOR_AXIS":"6925.408","ECCENTRICITY":"0.00018480","MEAN_ELEMENT_THEORY":"SGP4","TLE_LINE2":"2 48452  53.0550 248.7045 0001848  49.4619 310.6531 15.06380750 83079","MEAN_ANOMALY":"310.6531","INCLINATION":"53.0550","SITE":"AFETR","OBJECT_NAME":"STARLINK-2703","MEAN_MOTION_DDOT":"0.0000000000000","CLASSIFICATION_TYPE":"U","NORAD_CAT_ID":"48452","MEAN_MOTION_DOT":"0.00003296","PERIOD":"95.593"},{"FILE":"3648233","MEAN_MOTION":"15.06384061","PERIAPSIS":"545.830","CENTER_NAME":"EARTH","ARG_OF_PERICENTER":"41.6576","APOAPSIS":"548.695","GP_ID":"217105292","ELEMENT_SET_NO":"999","LAUNCH_DATE":"2021-05-09","RA_OF_ASC_NODE":"248.7584","TIME_SYSTEM":"UTC","REV_AT_EPOCH":"8307","COUNTRY_CODE":"US","EPHEMERIS_TYPE":"0","OBJECT_ID":"2021-040AB","SITE":"AFETR","NORAD_CAT_ID":"48453","CLASSIFICATION_TYPE":"U","MEAN_MOTION_DOT":"0.00003852","PERIOD":"95.593","MEAN_MOTION_DDOT":"0.0000000000000","OBJECT_NAME":"STARLINK-2620","TLE_LINE1":"1 48453U 21040AB  22311.84342580  .00003852  00000-0  27751-3 0  9997","ECCENTRICITY":"0.00020690","RCS_SIZE":"LARGE","SEMIMAJOR_AXIS":"6925.397","MEAN_ELEMENT_THEORY":"SGP4","EPOCH":"2022-11-07T20:14:31.989120","REF_FRAME":"TEME","DECAY_DATE":null,"BSTAR":"0.00027751000000","OBJECT_TYPE":"PAYLOAD","MEAN_ANOMALY":"318.4570","INCLINATION":"53.0547","TLE_LINE2":"2 48453  53.0547 248.7584 0002069  41.6576 318.4570 15.06384061 83074"},{"LAUNCH_DATE":"2021-05-09","APOAPSIS":"548.388","GP_ID":"217105543","ELEMENT_SET_NO":"999","ARG_OF_PERICENTER":"56.6420","FILE":"3648233","PERIAPSIS":"546.037","MEAN_MOTION":"15.06400289","CENTER_NAME":"EARTH","OBJECT_ID":"2021-040AC","EPHEMERIS_TYPE":"0","COUNTRY_CODE":"US","RA_OF_ASC_NODE":"248.7603","TIME_SYSTEM":"UTC","REV_AT_EPOCH":"8307","MEAN_MOTION_DDOT":"0.0000000000000","OBJECT_NAME":"STARLINK-2654","NORAD_CAT_ID":"48454","CLASSIFICATION_TYPE":"U","MEAN_MOTION_DOT":"0.00004276","PERIOD":"95.592","SITE":"AFETR","TLE_LINE2":"2 48454  53.0524 248.7603 0001697  56.6420 303.4731 15.06400289 83076","MEAN_ANOMALY":"303.4731","INCLINATION":"53.0524","EPOCH":"2022-11-07T20:09:13.411584","REF_FRAME":"TEME","DECAY_DATE":null,"OBJECT_TYPE":"PAYLOAD","BSTAR":"0.00030580000000","RCS_SIZE":"LARGE","TLE_LINE1":"1 48454U 21040AC  22311.83973856  .00004276  00000-0  30580-3 0  9998","SEMIMAJOR_AXIS":"6925.348","ECCENTRICITY":"0.00016970","MEAN_ELEMENT_THEORY":"SGP4"},{"TLE_LINE1":"1 48455U 21040AD  22311.83605428  .00008414  00000-0  58291-3 0  9993","RCS_SIZE":"LARGE","ECCENTRICITY":"0.00021500","SEMIMAJOR_AXIS":"6925.313","MEAN_ELEMENT_THEORY":"SGP4","DECAY_DATE":null,"EPOCH":"2022-11-07T20:03:55.089792","REF_FRAME":"TEME","BSTAR":"0.00058291000000","OBJECT_TYPE":"PAYLOAD","INCLINATION":"53.0549","MEAN_ANOMALY":"309.8658","TLE_LINE2":"2 48455  53.0549 248.7818 0002150  50.2520 309.8658 15.06411693 83066","SITE":"AFETR","MEAN_MOTION_DOT":"0.00008414","NORAD_CAT_ID":"48455","CLASSIFICATION_TYPE":"U","PERIOD":"95.591","OBJECT_NAME":"STARLINK-2497","MEAN_MOTION_DDOT":"0.0000000000000","RA_OF_ASC_NODE":"248.7818","TIME_SYSTEM":"UTC","REV_AT_EPOCH":"8306","COUNTRY_CODE":"US","EPHEMERIS_TYPE":"0","OBJECT_ID":"2021-040AD","FILE":"3648233","CENTER_NAME":"EARTH","PERIAPSIS":"545.689","MEAN_MOTION":"15.06411693","ARG_OF_PERICENTER":"50.2520","APOAPSIS":"548.667","ELEMENT_SET_NO":"999","GP_ID":"217104290","LAUNCH_DATE":"2021-05-09"},{"INCLINATION":"53.0541","MEAN_ANOMALY":"311.5820","TLE_LINE2":"2 48456  53.0541 249.9902 0001865  48.5329 311.5820 15.06394817 83020","MEAN_ELEMENT_THEORY":"SGP4","TLE_LINE1":"1 48456U 21040AE  22311.56697588  .00000819  00000-0  73900-4 0  9998","ECCENTRICITY":"0.00018650","RCS_SIZE":"LARGE","SEMIMAJOR_AXIS":"6925.364","OBJECT_TYPE":"PAYLOAD","BSTAR":"0.00007390000000","DECAY_DATE":null,"REF_FRAME":"TEME","EPOCH":"2022-11-07T13:36:26.716032","PERIOD":"95.592","MEAN_MOTION_DOT":"0.00000819","NORAD_CAT_ID":"48456","CLASSIFICATION_TYPE":"U","MEAN_MOTION_DDOT":"0.0000000000000","OBJECT_NAME":"STARLINK-2508","SITE":"AFETR","EPHEMERIS_TYPE":"0","OBJECT_ID":"2021-040AE","REV_AT_EPOCH":"8302","RA_OF_ASC_NODE":"249.9902","TIME_SYSTEM":"UTC","COUNTRY_CODE":"US","ELEMENT_SET_NO":"999","GP_ID":"217104540","APOAPSIS":"548.521","LAUNCH_DATE":"2021-05-09","CENTER_NAME":"EARTH","MEAN_MOTION":"15.06394817","PERIAPSIS":"545.938","FILE":"3648233","ARG_OF_PERICENTER":"48.5329"},{"APOAPSIS":"548.576","GP_ID":"217105792","ELEMENT_SET_NO":"999","LAUNCH_DATE":"2021-05-09","FILE":"3648233","PERIAPSIS":"545.910","MEAN_MOTION":"15.06390357","CENTER_NAME":"EARTH","ARG_OF_PERICENTER":"50.5902","EPHEMERIS_TYPE":"0","OBJECT_ID":"2021-040AG","TIME_SYSTEM":"UTC","RA_OF_ASC_NODE":"253.8318","REV_AT_EPOCH":"8371","COUNTRY_CODE":"US","NORAD_CAT_ID":"48458","CLASSIFICATION_TYPE":"U","MEAN_MOTION_DOT":"0.00003720","PERIOD":"95.593","MEAN_MOTION_DDOT":"0.0000000000000","OBJECT_NAME":"STARLINK-2698","SITE":"AFETR","MEAN_ANOMALY":"309.5257","INCLINATION":"53.0540","TLE_LINE2":"2 48458  53.0540 253.8318 0001925  50.5902 309.5257 15.06390357 83715","TLE_LINE1":"1 48458U 21040AG  22311.84481624  .00003720  00000-0  26857-3 0  9995","RCS_SIZE":"LARGE","ECCENTRICITY":"0.00019250","SEMIMAJOR_AXIS":"6925.378","MEAN_ELEMENT_THEORY":"SGP4","EPOCH":"2022-11-07T20:16:32.123136","REF_FRAME":"TEME","DECAY_DATE":null,"BSTAR":"0.00026857000000","OBJECT_TYPE":"PAYLOAD"},{"SITE":"AFETR","PERIOD":"95.592","CLASSIFICATION_TYPE":"U","NORAD_CAT_ID":"48459","MEAN_MOTION_DOT":"0.00007696","OBJECT_NAME":"STARLINK-2579","MEAN_MOTION_DDOT":"0.0000000000000","MEAN_ELEMENT_THEORY":"SGP4","TLE_LINE1":"1 48459U 21040AH  22311.83748295  .00007696  00000-0  53503-3 0  9999","SEMIMAJOR_AXIS":"6925.353","RCS_SIZE":"LARGE","ECCENTRICITY":"0.00023660","OBJECT_TYPE":"PAYLOAD","BSTAR":"0.00053503000000","REF_FRAME":"TEME","EPOCH":"2022-11-07T20:05:58.526880","DECAY_DATE":null,"MEAN_ANOMALY":"323.1252","INCLINATION":"53.0545","TLE_LINE2":"2 48459  53.0545 254.1258 0002366  36.9900 323.1252 15.06398467 83003","PERIAPSIS":"545.580","MEAN_MOTION":"15.06398467","CENTER_NAME":"EARTH","FILE":"3648233","ARG_OF_PERICENTER":"36.9900","GP_ID":"217106043","ELEMENT_SET_NO":"999","APOAPSIS":"548.857","LAUNCH_DATE":"2021-05-09","REV_AT_EPOCH":"8300","TIME_SYSTEM":"UTC","RA_OF_ASC_NODE":"254.1258","COUNTRY_CODE":"US","EPHEMERIS_TYPE":"0","OBJECT_ID":"2021-040AH"},{"OBJECT_ID":"2021-040AJ","EPHEMERIS_TYPE":"0","COUNTRY_CODE":"US","TIME_SYSTEM":"UTC","RA_OF_ASC_NODE":"253.6994","REV_AT_EPOCH":"8351","LAUNCH_DATE":"2021-05-09","APOAPSIS":"548.744","ELEMENT_SET_NO":"999","GP_ID":"217104791","ARG_OF_PERICENTER":"47.4664","FILE":"3648233","CENTER_NAME":"EARTH","MEAN_MOTION":"15.06392218","PERIAPSIS":"545.731","TLE_LINE2":"2 48460  53.0554 253.6994 0002175  47.4664 312.6508 15.06392218 83519","INCLINATION":"53.0554","MEAN_ANOMALY":"312.6508","DECAY_DATE":null,"REF_FRAME":"TEME","EPOCH":"2022-11-07T20:32:26.507904","BSTAR":"0.00026081000000","OBJECT_TYPE":"PAYLOAD","ECCENTRICITY":"0.00021750","TLE_LINE1":"1 48460U 21040AJ  22311.85586236  .00003604  00000-0  26081-3 0  9994","RCS_SIZE":"LARGE","SEMIMAJOR_AXIS":"6925.372","MEAN_ELEMENT_THEORY":"SGP4","OBJECT_NAME":"STARLINK-2582","MEAN_MOTION_DDOT":"0.0000000000000","MEAN_MOTION_DOT":"0.00003604","NORAD_CAT_ID":"48460","CLASSIFICATION_TYPE":"U","PERIOD":"95.593","SITE":"AFETR"},{"INCLINATION":"53.0552","MEAN_ANOMALY":"304.1896","TLE_LINE2":"2 48461  53.0552 253.6351 0001845  55.9268 304.1896 15.06391503 83019","MEAN_ELEMENT_THEORY":"SGP4","RCS_SIZE":"LARGE","TLE_LINE1":"1 48461U 21040AK  22311.87060841  .00001900  00000-0  14648-3 0  9999","ECCENTRICITY":"0.00018450","SEMIMAJOR_AXIS":"6925.375","BSTAR":"0.00014648000000","OBJECT_TYPE":"PAYLOAD","DECAY_DATE":null,"EPOCH":"2022-11-07T20:53:40.566624","REF_FRAME":"TEME","PERIOD":"95.593","MEAN_MOTION_DOT":"0.00001900","NORAD_CAT_ID":"48461","CLASSIFICATION_TYPE":"U","OBJECT_NAME":"STARLINK-2693","MEAN_MOTION_DDOT":"0.0000000000000","SITE":"AFETR","EPHEMERIS_TYPE":"0","OBJECT_ID":"2021-040AK","REV_AT_EPOCH":"8301","TIME_SYSTEM":"UTC","RA_OF_ASC_NODE":"253.6351","COUNTRY_CODE":"US","ELEMENT_SET_NO":"999","GP_ID":"217105041","APOAPSIS":"548.517","LAUNCH_DATE":"2021-05-09","CENTER_NAME":"EARTH","MEAN_MOTION":"15.06391503","PERIAPSIS":"545.962","FILE":"3648233","ARG_OF_PERICENTER":"55.9268"},{"PERIAPSIS":"545.948","MEAN_MOTION":"15.06403275","CENTER_NAME":"EARTH","FILE":"3648233","ARG_OF_PERICENTER":"53.9005","GP_ID":"217105293","ELEMENT_SET_NO":"999","APOAPSIS":"548.459","LAUNCH_DATE":"2021-05-09","REV_AT_EPOCH":"8293","RA_OF_ASC_NODE":"258.9748","TIME_SYSTEM":"UTC","COUNTRY_CODE":"US","EPHEMERIS_TYPE":"0","OBJECT_ID":"2021-040AL","SITE":"AFETR","PERIOD":"95.592","CLASSIFICATION_TYPE":"U","NORAD_CAT_ID":"48462","MEAN_MOTION_DOT":"0.00005973","MEAN_MOTION_DDOT":"0.0000000000000","OBJECT_NAME":"STARLINK-2683","MEAN_ELEMENT_THEORY":"SGP4","TLE_LINE1":"1 48462U 21040AL  22311.85359768  .00005973  00000-0  41949-3 0  9995","ECCENTRICITY":"0.00018130","RCS_SIZE":"LARGE","SEMIMAJOR_AXIS":"6925.339","OBJECT_TYPE":"PAYLOAD","BSTAR":"0.00041949000000","REF_FRAME":"TEME","EPOCH":"2022-11-07T20:29:10.839552","DECAY_DATE":null,"MEAN_ANOMALY":"306.2151","INCLINATION":"53.0550","TLE_LINE2":"2 48462  53.0550 258.9748 0001813  53.9005 306.2151 15.06403275 82935"}];
